[hydra]
iau_moon_number=PIII
albedo=0.195
name=Hydra
orbit_AscendingNode=227.6182145734207
orbit_Eccentricity=0.008469198926346792
orbit_Epoch=2457939.5
orbit_Inclination=1.974020787636261
orbit_LongOfPericenter=585.8426709065136
orbit_MeanLongitude=616.67133430897493
orbit_Period=-38.46736637831656
orbit_SemiMajorAxis=64900.41061999993140051606
# orbit_visualization_period=38.46736637831656
parent=Pluto
radius=114
rot_obliquity=1.0
# rot_periode=38.46736637831656
rot_rotation_offset=0.0
tex_map=lune.png
type=moon

[hyperion]
iau_moon_number=SVII
absolute_magnitude=4.63
PrecessionRate=51.43
RotationPeriod=120
albedo=0.3
color=1., 0.914, 0.835
coord_func=hyperion_special
name=Hyperion
model=s7hyperion_21_MLfix.obj
orbit_visualization_period=21.276609
parent=Saturn
radius=135
rot_equator_ascending_node=145
rot_obliquity=61.
rot_periode=510.72
rot_rotation_offset=318.9
tex_map=hyperion.png
type=moon

[iapetus]
iau_moon_number=SVIII
absolute_magnitude=1.5
albedo=0.2
color=1., 0.973, 0.948
coord_func=iapetus_special
name=Iapetus
orbit_visualization_period=79.33
parent=Saturn
radius=734.3
rot_equator_ascending_node=213.7
rot_obliquity=15.5
rot_periode=1903.940390
rot_rotation_offset=223.73
rot_pole_ra=318.16
rot_pole_ra1=-3.949
rot_pole_de=75.03
rot_pole_de1=-1.143
rot_pole_w0=355.2
rot_pole_w1=4.5379572
tex_map=iapetus.png
type=moon

[io]
iau_moon_number=JI
absolute_magnitude=-1.68
albedo=0.63
atmosphere=1
color=1., .885, .598
coord_func=io_special
name=Io
orbit_visualization_period=1.769
parent=Jupiter
radius=1821.49
rot_obliquity=0.0
rot_periode=42.45930719
rot_rotation_offset=220.35
rot_pole_ra=268.05
rot_pole_ra1=-0.009
rot_pole_de=64.50
rot_pole_de1=0.003
rot_pole_w0=200.39
rot_pole_w1=203.4889538
tex_map=io.png
type=moon

[kerberos]
iau_moon_number=PIV
albedo=0.56
name=Kerberos
orbit_AscendingNode=227.3764616597038
orbit_Eccentricity=0.004864921999738080
orbit_Epoch=2457939.5
orbit_Inclination=1.977798409818596
orbit_LongOfPericenter=381.3281088678735
orbit_MeanLongitude=434.71660906890009
orbit_Period=-32.53390657388361
orbit_SemiMajorAxis=58042.31318993637053040642
# orbit_visualization_period=32.53390657388361
parent=Pluto
radius=19
rot_obliquity=1.0
# chaotic
rot_periode=0
rot_rotation_offset=0.0
tex_map=lune.png
type=moon

[janus]
iau_moon_number=SX
absolute_magnitude=4.9
albedo=0.5
color=1., 0.9, 0.75
name=Janus
orbit_AscendingNode=169.4950252408618
orbit_Eccentricity=0.01039350532665206
orbit_Epoch=2457939.5
orbit_Inclination=0.4924530371249293
orbit_LongOfPericenter=481.1046065786531
orbit_MeanLongitude=500.48456523833078
orbit_Period=0.7000394386551769
orbit_SemiMajorAxis=152044.1833237598760096396
# orbit_visualization_period=0.7000394386551769
parent=Saturn
radius=89.2
rot_equator_ascending_node=0
rot_obliquity=0
# rot_periode=0.7000394386551769
rot_rotation_offset=0
rot_pole_ra=40.58
rot_pole_ra1=-0.036
rot_pole_de=83.52
rot_pole_de1=-0.004
rot_pole_w0=58.83
rot_pole_w1=518.2359876
tex_map=janus.png
type=moon

[jupiter]
absolute_magnitude=-9.40
albedo=0.51
atmosphere=1
color=1., 0.983, 0.934
coord_func=jupiter_special
name=Jupiter
oblateness=0.064874
orbit_visualization_period=4331.87
radius=71492
rot_equator_ascending_node=-22.203
rot_obliquity=2.222461
rot_periode=9.92491
rot_pole_ra=268.056595
rot_pole_ra1=-0.006499
rot_pole_de=64.495303
rot_pole_de1=0.002413
# Use System II as most important because of GRS
rot_pole_w0=43.3
rot_pole_w1=870.270
rot_rotation_offset=-1 # use JupiterGRS patch
tex_map=jupiter.png #texture courtesy of Bj\xf6rn J\xf3nsson
type=planet

[juliet]
iau_moon_number=UXI
absolute_magnitude=8.8
albedo=0.07
color=1., 0.9, 0.75
name=Juliet
orbit_AscendingNode=167.6613914859273
orbit_Eccentricity=0.0003626339414843795
orbit_Epoch=2457939.5
orbit_Inclination=1.706138947278907
orbit_LongOfPericenter=492.2301885277902
orbit_MeanLongitude=535.05424730308089
orbit_Period=-0.4938749171108545
orbit_SemiMajorAxis=64410.82226003643742634391
# orbit_visualization_period=0.4938749171108545
parent=Uranus
radius=42
rot_equator_ascending_node=0
rot_obliquity=0
# rot_periode=0.4938749171108545 # Unknown
rot_rotation_offset=0
rot_pole_ra=257.31
rot_pole_ra1=0
rot_pole_de=-15.18
rot_pole_de1=0
rot_pole_w0=302.56
rot_pole_w1=-730.1253660
tex_map=lune.png
type=moon

[laomedeia]
iau_moon_number=NXII
albedo=0.06
color=1., 0.9, 0.75
name=Laomedeia
orbit_AscendingNode=33.54920843735481
orbit_Eccentricity=0.3845786604193581
orbit_Epoch=2454619.50000
orbit_Inclination=9.744680906468446
orbit_LongOfPericenter=159.9138961
orbit_MeanLongitude=305.1617125
orbit_Period=3185.068758279590
orbit_SemiMajorAxis=23580349.09459848
# orbit_visualization_period=3185.068758279590
parent=Neptune
radius=42
rot_equator_ascending_node=213.7
rot_obliquity=15.5
# rot_periode=3185.068758279590
rot_rotation_offset=14.9
tex_map=lune.png
type=moon

[larissa]
iau_moon_number=NVII
absolute_magnitude=7.3
albedo=0.091
color=1., 0.9, 0.75
name=Larissa
model=n7larissa_MLfix.obj
orbit_AscendingNode=12.97300037402120
orbit_Eccentricity=0.001628627055845952
orbit_Epoch=2454619.50000
orbit_Inclination=0.3672114864338289
orbit_LongOfPericenter=342.2125629
orbit_MeanLongitude=38.69785092
orbit_Period=0.5553035150611498
orbit_SemiMajorAxis=73590.98861163890
# orbit_visualization_period=0.5553035150611498
parent=Neptune
radius=96
rot_equator_ascending_node=213.7
rot_obliquity=15.5
# rot_periode=13.3272843614675952
rot_rotation_offset=120.57
rot_pole_ra=299.36
rot_pole_de=43.41
rot_pole_w0=179.41
rot_pole_w1=649.0534470
tex_map=lune.png
type=moon

[leda]
iau_moon_number=JXIII
absolute_magnitude=13.5
albedo=0.04
color=1., 0.9, 0.75
name=Leda
orbit_AscendingNode=205.5729208452909
orbit_Eccentricity=0.1849972068029340
orbit_Epoch=2454619.50000
orbit_Inclination=28.26096889279179
orbit_LongOfPericenter=133.1912542293990000
orbit_MeanLongitude=276.4502233853120000
orbit_Period=242.2566769525344
orbit_SemiMajorAxis=11202541.76637748
# orbit_visualization_period=242.2566769525344
parent=Jupiter
radius=5
rot_equator_ascending_node=213.7
rot_obliquity=15.5
# rot_periode=242.2566769525344
rot_rotation_offset=14.9
tex_map=lune.png
type=moon

[lysithea]
iau_moon_number=JX
absolute_magnitude=11.7
albedo=0.04
color=1., 0.9, 0.75
name=Lysithea
orbit_AscendingNode=0.2875682490706584
orbit_Eccentricity=0.1281232102397132
orbit_Epoch=2454619.50000
orbit_Inclination=24.59040357245339
orbit_LongOfPericenter=78.9389828310578000
orbit_MeanLongitude=337.5492383800380000
orbit_Period=259.0469768771512
orbit_SemiMajorAxis=11714356.05630203
# orbit_visualization_period=259.0469768771512
parent=Jupiter
radius=12
rot_equator_ascending_node=213.7
rot_obliquity=15.5
# rot_periode=259.0469768771512
rot_rotation_offset=14.9
tex_map=lune.png
type=moon

[mars]
absolute_magnitude=-1.52
albedo=0.150
atmosphere=1
color=1., 0.768, 0.504
coord_func=mars_special
landscape=mars
name=Mars
orbit_visualization_period=686.971
radius=3396.19
oblateness=0.005886
rot_equator_ascending_node=82.91
rot_obliquity=26.72
rot_periode=24.622962
rot_rotation_offset=136.005
rot_pole_ra=317.269202
rot_pole_ra1=-0.10927547
rot_pole_de=54.432516
rot_pole_de1=-0.05827105
rot_pole_w0=176.049863
rot_pole_w1=350.891982443297
tex_map=mars.png
type=planet

[mercury]
absolute_magnitude=-0.60
albedo=0.06
color=1.0, 0.964, 0.914
coord_func=mercury_special
name=Mercury
orbit_visualization_period=87.97
radius=2440.53
oblateness=0.0009301258
rot_equator_ascending_node=48.42
rot_obliquity=7.01
rot_periode=1407.509405
rot_rotation_offset=291.20
rot_pole_ra=281.0103
rot_pole_ra1=-0.0328
rot_pole_de=61.4155
rot_pole_de1=-0.0049
rot_pole_w0=329.5988
rot_pole_w1=6.1385108
tex_map=mercury.png
type=planet

